{
  "norad_id": 53720,
  "name": "STARLINK-4642",
  "history": [
    {
      "epoch": "2026-03-28T14:41:12.001344Z",
      "apogee_km": 540.6093239898964,
      "perigee_km": 538.9006046747063,
      "latitude_deg": 1.2072215947588063e-05,
      "longitude_deg": 122.60450757929048,
      "height_km": 540.5619393519255,
      "semi_major_axis_km": 6917.8919643323015,
      "eccentricity": 0.0001235,
      "inclination_deg": 53.2166,
      "raan_deg": 168.9344,
      "arg_perigee_deg": 84.0323,
      "mean_anomaly_deg": 276.081,
      "mean_motion_rev_day": 15.08836213
    }
  ]
}