{"fetched_at":"2026-03-30T13:17:50Z","count":15418,"tles":[{"name":"STARLINK-4642","line1":"1 53720U 22107W   26087.61194446  .00000277  00000+0  35507-4 0  9996","line2":"2 53720  53.2166 168.9344 0001235  84.0323 276.0810 15.08836213197275","category":"Starlink"}]}